{
  "links" : {
    "next" : "https://api.nasa.gov/neo/rest/v1/feed?start_date=2001-06-09&end_date=2001-06-09&detailed=true&api_key=t0TVs3DtDT2H8Oy2Zy8m2eVrNsAVKAexjcZXUckd",
    "prev" : "https://api.nasa.gov/neo/rest/v1/feed?start_date=2001-06-07&end_date=2001-06-07&detailed=true&api_key=t0TVs3DtDT2H8Oy2Zy8m2eVrNsAVKAexjcZXUckd",
    "self" : "https://api.nasa.gov/neo/rest/v1/feed?start_date=2001-06-08&end_date=2001-06-08&detailed=true&api_key=t0TVs3DtDT2H8Oy2Zy8m2eVrNsAVKAexjcZXUckd"
  },
  "element_count" : 5,
  "near_earth_objects" : {
    "2001-06-08" : [ {
      "links" : {
        "self" : "https://api.nasa.gov/neo/rest/v1/neo/2452334?api_key=t0TVs3DtDT2H8Oy2Zy8m2eVrNsAVKAexjcZXUckd"
      },
      "neo_reference_id" : "2452334",
      "name" : "452334 (2001 LB)",
      "nasa_jpl_url" : "http://ssd.jpl.nasa.gov/sbdb.cgi?sstr=2452334",
      "absolute_magnitude_h" : 21.0,
      "estimated_diameter" : {
        "kilometers" : {
          "estimated_diameter_min" : 0.1677084622,
          "estimated_diameter_max" : 0.3750075218
        },
        "meters" : {
          "estimated_diameter_min" : 167.7084621628,
          "estimated_diameter_max" : 375.0075217981
        },
        "miles" : {
          "estimated_diameter_min" : 0.1042091748,
          "estimated_diameter_max" : 0.2330187988
        },
        "feet" : {
          "estimated_diameter_min" : 550.2246310023,
          "estimated_diameter_max" : 1230.3396778159
        }
      },
      "is_potentially_hazardous_asteroid" : false,
      "close_approach_data" : [ {
        "close_approach_date" : "2001-06-08",
        "epoch_date_close_approach" : 991983600000,
        "relative_velocity" : {
          "kilometers_per_second" : "12.0503906965",
          "kilometers_per_hour" : "43381.4065073633",
          "miles_per_hour" : "26955.518948978"
        },
        "miss_distance" : {
          "astronomical" : "0.0880369876",
          "lunar" : "34.2463874817",
          "kilometers" : "13170145",
          "miles" : "8183549"
        },
        "orbiting_body" : "Earth"
      } ],
      "orbital_data" : {
        "orbit_id" : "33",
        "orbit_determination_date" : "2017-04-06 09:20:06",
        "orbit_uncertainty" : "0",
        "minimum_orbit_intersection" : ".0731153",
        "jupiter_tisserand_invariant" : "5.104",
        "epoch_osculation" : "2458000.5",
        "eccentricity" : ".1892781045363975",
        "semi_major_axis" : "1.236144204779441",
        "inclination" : "20.79453886065231",
        "ascending_node_longitude" : "80.91237716865963",
        "orbital_period" : "501.9981684534409",
        "perihelion_distance" : "1.002169172765136",
        "perihelion_argument" : "118.1528418169077",
        "aphelion_distance" : "1.470119236793746",
        "perihelion_time" : "2458037.684549171437",
        "mean_anomaly" : "333.3336921468092",
        "mean_motion" : ".7171340905666852",
        "equinox" : "J2000"
      }
    }, {
      "links" : {
        "self" : "https://api.nasa.gov/neo/rest/v1/neo/3468527?api_key=t0TVs3DtDT2H8Oy2Zy8m2eVrNsAVKAexjcZXUckd"
      },
      "neo_reference_id" : "3468527",
      "name" : "(2009 SM104)",
      "nasa_jpl_url" : "http://ssd.jpl.nasa.gov/sbdb.cgi?sstr=3468527",
      "absolute_magnitude_h" : 23.6,
      "estimated_diameter" : {
        "kilometers" : {
          "estimated_diameter_min" : 0.0506471459,
          "estimated_diameter_max" : 0.1132504611
        },
        "meters" : {
          "estimated_diameter_min" : 50.6471458835,
          "estimated_diameter_max" : 113.2504610618
        },
        "miles" : {
          "estimated_diameter_min" : 0.0314706677,
          "estimated_diameter_max" : 0.0703705522
        },
        "feet" : {
          "estimated_diameter_min" : 166.1651821003,
          "estimated_diameter_max" : 371.5566426699
        }
      },
      "is_potentially_hazardous_asteroid" : false,
      "close_approach_data" : [ {
        "close_approach_date" : "2001-06-08",
        "epoch_date_close_approach" : 991983600000,
        "relative_velocity" : {
          "kilometers_per_second" : "14.8801432477",
          "kilometers_per_hour" : "53568.5156915828",
          "miles_per_hour" : "33285.3924306949"
        },
        "miss_distance" : {
          "astronomical" : "0.2095271914",
          "lunar" : "81.5060806274",
          "kilometers" : "31344822",
          "miles" : "19476770"
        },
        "orbiting_body" : "Earth"
      } ],
      "orbital_data" : {
        "orbit_id" : "12",
        "orbit_determination_date" : "2017-04-06 08:59:48",
        "orbit_uncertainty" : "7",
        "minimum_orbit_intersection" : ".0672121",
        "jupiter_tisserand_invariant" : "6.098",
        "epoch_osculation" : "2458000.5",
        "eccentricity" : ".3675326427022826",
        "semi_major_axis" : ".981450655761091",
        "inclination" : "9.676830169742416",
        "ascending_node_longitude" : ".8317866310987827",
        "orbital_period" : "355.141259983995",
        "perihelion_distance" : ".620735502567329",
        "perihelion_argument" : "138.9835264813726",
        "aphelion_distance" : "1.342165808954853",
        "perihelion_time" : "2458039.068982143123",
        "mean_anomaly" : "320.9033499172974",
        "mean_motion" : "1.013681147654384",
        "equinox" : "J2000"
      }
    } ]
  }
}